{
  "type": "FeatureCollection",
  "features": [
    {
      "type": "Feature",
      "id": "osm_settlement_node_245716231",
      "properties": {
        "osm_type": "node",
        "osm_id": 245716231,
        "village_id": "OSM_N245716231",
        "name": "Aizawl",
        "place": "city",
        "population": "291822",
        "admin_level": null,
        "source": "OpenStreetMap contributors",
        "data_type": "REAL_OSM"
      },
      "geometry": {
        "type": "Point",
        "coordinates": [
          92.7179947,
          23.7277631
        ]
      }
    }
  ]
}